STARLINK-36785          
1 67853U 26034D   26067.59143372  .00558617  00000+0  26465-2 0  9995
2 67853  53.1592 216.8345 0000909  47.5004 312.6096 15.80939454  3764
STARLINK-36608          
1 67854U 26034E   26067.59068042  .00608529  00000+0  28606-2 0  9993
2 67854  53.1589 216.8294 0000961  37.5264 322.5826 15.80978624  3751
STARLINK-36838          
1 67855U 26034F   26067.58992756  .00516904  00000+0  24634-2 0  9993
2 67855  53.1590 216.8238 0001378  45.5770 314.5365 15.80921337  3765
STARLINK-36843          
1 67856U 26034G   26067.58843055  .00573772  00000+0  27095-2 0  9991
2 67856  53.1589 216.8139 0000570  38.0569 322.0494 15.80968742  3768
STARLINK-36828          
1 67857U 26034H   26067.58917780  .00324917  00000+0  15801-2 0  9996
2 67857  53.1586 216.8197 0000998  87.0754 273.0383 15.80988210  3768
STARLINK-36837          
1 67858U 26034J   26067.58768164  .00480272  00000+0  22959-2 0  9996
2 67858  53.1592 216.8090 0001021  99.2528 260.8611 15.80949222  3768
STARLINK-36393          
1 67859U 26034K   26067.58692671  .00258620  00000+0  12698-2 0  9995
2 67859  53.1591 216.8033 0001119 125.4832 234.6295 15.80961654  3763
STARLINK-35873          
1 67860U 26034L   26067.58618032  .00234040  00000+0  11538-2 0  9998
2 67860  53.1591 216.7988 0001229  74.4868 285.6290 15.80941376  3790
STARLINK-36325          
1 67861U 26034M   26067.58542932  .00471887  00000+0  22561-2 0  9994
2 67861  53.1591 216.7938 0001476   6.6787 353.4255 15.80969395  3760
STARLINK-36332          
1 67862U 26034N   26067.64789569  .00247584  00000+0  12173-2 0  9994
2 67862  53.1587 216.4722 0000690  81.9089 278.2012 15.80962250  3771
STARLINK-36835          
1 67863U 26034P   26067.58392710  .00266177  00000+0  13055-2 0  9995
2 67863  53.1592 216.7830 0001097 109.6374 250.4767 15.80963927  3768
STARLINK-36831          
1 67864U 26034Q   26067.58317615  .00314881  00000+0  15337-2 0  9998
2 67864  53.1588 216.7777 0001159  53.0834 307.0294 15.80982284  3767
