CCSDS_OMM_VERS = 2.0
CREATION_DATE  = 
ORIGINATOR     = 

OBJECT_NAME    = STARLINK-36785
OBJECT_ID      = 2026-034D
CENTER_NAME    = EARTH
REF_FRAME      = TEME
TIME_SYSTEM    = UTC
MEAN_ELEMENT_THEORY = SGP/SGP4

EPOCH          = 2026-03-08T14:11:39.873408
MEAN_MOTION    = 15.80939454
ECCENTRICITY   = .00009096
INCLINATION    = 53.1592
RA_OF_ASC_NODE = 216.8345
ARG_OF_PERICENTER = 47.5004
MEAN_ANOMALY   = 312.6096

EPHEMERIS_TYPE = 0
CLASSIFICATION_TYPE = U
NORAD_CAT_ID   = 67853
ELEMENT_SET_NO = 999
REV_AT_EPOCH   = 376
BSTAR          = .26464824E-2
MEAN_MOTION_DOT = .558617E-2
MEAN_MOTION_DDOT = 0

CCSDS_OMM_VERS = 2.0
CREATION_DATE  = 
ORIGINATOR     = 

OBJECT_NAME    = STARLINK-36608
OBJECT_ID      = 2026-034E
CENTER_NAME    = EARTH
REF_FRAME      = TEME
TIME_SYSTEM    = UTC
MEAN_ELEMENT_THEORY = SGP/SGP4

EPOCH          = 2026-03-08T14:10:34.788288
MEAN_MOTION    = 15.80978624
ECCENTRICITY   = .0000961
INCLINATION    = 53.1589
RA_OF_ASC_NODE = 216.8294
ARG_OF_PERICENTER = 37.5264
MEAN_ANOMALY   = 322.5826

EPHEMERIS_TYPE = 0
CLASSIFICATION_TYPE = U
NORAD_CAT_ID   = 67854
ELEMENT_SET_NO = 999
REV_AT_EPOCH   = 375
BSTAR          = .28605771E-2
MEAN_MOTION_DOT = .608529E-2
MEAN_MOTION_DDOT = 0

CCSDS_OMM_VERS = 2.0
CREATION_DATE  = 
ORIGINATOR     = 

OBJECT_NAME    = STARLINK-36838
OBJECT_ID      = 2026-034F
CENTER_NAME    = EARTH
REF_FRAME      = TEME
TIME_SYSTEM    = UTC
MEAN_ELEMENT_THEORY = SGP/SGP4

EPOCH          = 2026-03-08T14:09:29.741184
MEAN_MOTION    = 15.80921337
ECCENTRICITY   = .00013782
INCLINATION    = 53.1590
RA_OF_ASC_NODE = 216.8238
ARG_OF_PERICENTER = 45.5770
MEAN_ANOMALY   = 314.5365

EPHEMERIS_TYPE = 0
CLASSIFICATION_TYPE = U
NORAD_CAT_ID   = 67855
ELEMENT_SET_NO = 999
REV_AT_EPOCH   = 376
BSTAR          = .24633795E-2
MEAN_MOTION_DOT = .516904E-2
MEAN_MOTION_DDOT = 0

CCSDS_OMM_VERS = 2.0
CREATION_DATE  = 
ORIGINATOR     = 

OBJECT_NAME    = STARLINK-36843
OBJECT_ID      = 2026-034G
CENTER_NAME    = EARTH
REF_FRAME      = TEME
TIME_SYSTEM    = UTC
MEAN_ELEMENT_THEORY = SGP/SGP4

EPOCH          = 2026-03-08T14:07:20.399520
MEAN_MOTION    = 15.80968742
ECCENTRICITY   = .00005708
INCLINATION    = 53.1589
RA_OF_ASC_NODE = 216.8139
ARG_OF_PERICENTER = 38.0569
MEAN_ANOMALY   = 322.0494

EPHEMERIS_TYPE = 0
CLASSIFICATION_TYPE = U
NORAD_CAT_ID   = 67856
ELEMENT_SET_NO = 999
REV_AT_EPOCH   = 376
BSTAR          = .27095333E-2
MEAN_MOTION_DOT = .573772E-2
MEAN_MOTION_DDOT = 0

CCSDS_OMM_VERS = 2.0
CREATION_DATE  = 
ORIGINATOR     = 

OBJECT_NAME    = STARLINK-36828
OBJECT_ID      = 2026-034H
CENTER_NAME    = EARTH
REF_FRAME      = TEME
TIME_SYSTEM    = UTC
MEAN_ELEMENT_THEORY = SGP/SGP4

EPOCH          = 2026-03-08T14:08:24.961920
MEAN_MOTION    = 15.80988210
ECCENTRICITY   = .00009987
INCLINATION    = 53.1586
RA_OF_ASC_NODE = 216.8197
ARG_OF_PERICENTER = 87.0754
MEAN_ANOMALY   = 273.0383

EPHEMERIS_TYPE = 0
CLASSIFICATION_TYPE = U
NORAD_CAT_ID   = 67857
ELEMENT_SET_NO = 999
REV_AT_EPOCH   = 376
BSTAR          = .15801449E-2
MEAN_MOTION_DOT = .324917E-2
MEAN_MOTION_DDOT = 0

CCSDS_OMM_VERS = 2.0
CREATION_DATE  = 
ORIGINATOR     = 

OBJECT_NAME    = STARLINK-36837
OBJECT_ID      = 2026-034J
CENTER_NAME    = EARTH
REF_FRAME      = TEME
TIME_SYSTEM    = UTC
MEAN_ELEMENT_THEORY = SGP/SGP4

EPOCH          = 2026-03-08T14:06:15.693696
MEAN_MOTION    = 15.80949222
ECCENTRICITY   = .00010219
INCLINATION    = 53.1592
RA_OF_ASC_NODE = 216.8090
ARG_OF_PERICENTER = 99.2528
MEAN_ANOMALY   = 260.8611

EPHEMERIS_TYPE = 0
CLASSIFICATION_TYPE = U
NORAD_CAT_ID   = 67858
ELEMENT_SET_NO = 999
REV_AT_EPOCH   = 376
BSTAR          = .22959182E-2
MEAN_MOTION_DOT = .480272E-2
MEAN_MOTION_DDOT = 0

CCSDS_OMM_VERS = 2.0
CREATION_DATE  = 
ORIGINATOR     = 

OBJECT_NAME    = STARLINK-36393
OBJECT_ID      = 2026-034K
CENTER_NAME    = EARTH
REF_FRAME      = TEME
TIME_SYSTEM    = UTC
MEAN_ELEMENT_THEORY = SGP/SGP4

EPOCH          = 2026-03-08T14:05:10.467744
MEAN_MOTION    = 15.80961654
ECCENTRICITY   = .00011197
INCLINATION    = 53.1591
RA_OF_ASC_NODE = 216.8033
ARG_OF_PERICENTER = 125.4832
MEAN_ANOMALY   = 234.6295

EPHEMERIS_TYPE = 0
CLASSIFICATION_TYPE = U
NORAD_CAT_ID   = 67859
ELEMENT_SET_NO = 999
REV_AT_EPOCH   = 376
BSTAR          = .12697827E-2
MEAN_MOTION_DOT = .25862E-2
MEAN_MOTION_DDOT = 0

CCSDS_OMM_VERS = 2.0
CREATION_DATE  = 
ORIGINATOR     = 

OBJECT_NAME    = STARLINK-35873
OBJECT_ID      = 2026-034L
CENTER_NAME    = EARTH
REF_FRAME      = TEME
TIME_SYSTEM    = UTC
MEAN_ELEMENT_THEORY = SGP/SGP4

EPOCH          = 2026-03-08T14:04:05.979648
MEAN_MOTION    = 15.80941376
ECCENTRICITY   = .00012291
INCLINATION    = 53.1591
RA_OF_ASC_NODE = 216.7988
ARG_OF_PERICENTER = 74.4868
MEAN_ANOMALY   = 285.6290

EPHEMERIS_TYPE = 0
CLASSIFICATION_TYPE = U
NORAD_CAT_ID   = 67860
ELEMENT_SET_NO = 999
REV_AT_EPOCH   = 379
BSTAR          = .11538111E-2
MEAN_MOTION_DOT = .23404E-2
MEAN_MOTION_DDOT = 0

CCSDS_OMM_VERS = 2.0
CREATION_DATE  = 
ORIGINATOR     = 

OBJECT_NAME    = STARLINK-36325
OBJECT_ID      = 2026-034M
CENTER_NAME    = EARTH
REF_FRAME      = TEME
TIME_SYSTEM    = UTC
MEAN_ELEMENT_THEORY = SGP/SGP4

EPOCH          = 2026-03-08T14:03:01.093248
MEAN_MOTION    = 15.80969395
ECCENTRICITY   = .00014768
INCLINATION    = 53.1591
RA_OF_ASC_NODE = 216.7938
ARG_OF_PERICENTER = 6.6787
MEAN_ANOMALY   = 353.4255

EPHEMERIS_TYPE = 0
CLASSIFICATION_TYPE = U
NORAD_CAT_ID   = 67861
ELEMENT_SET_NO = 999
REV_AT_EPOCH   = 376
BSTAR          = .22561255E-2
MEAN_MOTION_DOT = .471887E-2
MEAN_MOTION_DDOT = 0

CCSDS_OMM_VERS = 2.0
CREATION_DATE  = 
ORIGINATOR     = 

OBJECT_NAME    = STARLINK-36332
OBJECT_ID      = 2026-034N
CENTER_NAME    = EARTH
REF_FRAME      = TEME
TIME_SYSTEM    = UTC
MEAN_ELEMENT_THEORY = SGP/SGP4

EPOCH          = 2026-03-08T15:32:58.187616
MEAN_MOTION    = 15.80962250
ECCENTRICITY   = .00006904
INCLINATION    = 53.1587
RA_OF_ASC_NODE = 216.4722
ARG_OF_PERICENTER = 81.9089
MEAN_ANOMALY   = 278.2012

EPHEMERIS_TYPE = 0
CLASSIFICATION_TYPE = U
NORAD_CAT_ID   = 67862
ELEMENT_SET_NO = 999
REV_AT_EPOCH   = 377
BSTAR          = .12172601E-2
MEAN_MOTION_DOT = .247584E-2
MEAN_MOTION_DDOT = 0

CCSDS_OMM_VERS = 2.0
CREATION_DATE  = 
ORIGINATOR     = 

OBJECT_NAME    = STARLINK-36835
OBJECT_ID      = 2026-034P
CENTER_NAME    = EARTH
REF_FRAME      = TEME
TIME_SYSTEM    = UTC
MEAN_ELEMENT_THEORY = SGP/SGP4

EPOCH          = 2026-03-08T14:00:51.301440
MEAN_MOTION    = 15.80963927
ECCENTRICITY   = .00010977
INCLINATION    = 53.1592
RA_OF_ASC_NODE = 216.7830
ARG_OF_PERICENTER = 109.6374
MEAN_ANOMALY   = 250.4767

EPHEMERIS_TYPE = 0
CLASSIFICATION_TYPE = U
NORAD_CAT_ID   = 67863
ELEMENT_SET_NO = 999
REV_AT_EPOCH   = 376
BSTAR          = .13054981E-2
MEAN_MOTION_DOT = .266177E-2
MEAN_MOTION_DDOT = 0

CCSDS_OMM_VERS = 2.0
CREATION_DATE  = 
ORIGINATOR     = 

OBJECT_NAME    = STARLINK-36831
OBJECT_ID      = 2026-034Q
CENTER_NAME    = EARTH
REF_FRAME      = TEME
TIME_SYSTEM    = UTC
MEAN_ELEMENT_THEORY = SGP/SGP4

EPOCH          = 2026-03-08T13:59:46.419360
MEAN_MOTION    = 15.80982284
ECCENTRICITY   = .00011592
INCLINATION    = 53.1588
RA_OF_ASC_NODE = 216.7777
ARG_OF_PERICENTER = 53.0834
MEAN_ANOMALY   = 307.0294

EPHEMERIS_TYPE = 0
CLASSIFICATION_TYPE = U
NORAD_CAT_ID   = 67864
ELEMENT_SET_NO = 999
REV_AT_EPOCH   = 376
BSTAR          = .15336732E-2
MEAN_MOTION_DOT = .314881E-2
MEAN_MOTION_DDOT = 0

